LYNK TOWER 4            
1 55034U 23001AB  26068.67743801  .00009160  00000+0  30014-3 0  9997
2 55034  97.3324 128.5940 0010321 112.3386 247.8950 15.31819885176588
STARLINK-35531          
1 66112U 25236AC  26068.47962574  .00027548  00000+0  93900-3 0  9999
2 66112  53.1595 104.7600 0001491  76.8145 283.3022 15.30192173 22916
